[
    {
        "CCSDS_OMM_VERS": "3.0",
        "COMMENT": "GENERATED VIA SPACE-TRACK.ORG API",
        "CREATION_DATE": "2025-05-04T02:26:54",
        "ORIGINATOR": "18 SPCS",
        "OBJECT_NAME": "BEIDOU 6",
        "OBJECT_ID": "2010-057A",
        "CENTER_NAME": "EARTH",
        "REF_FRAME": "TEME",
        "TIME_SYSTEM": "UTC",
        "MEAN_ELEMENT_THEORY": "SGP4",
        "EPOCH": "2025-05-03T20:16:14.392992",
        "MEAN_MOTION": "1.00272930",
        "ECCENTRICITY": "0.00052250",
        "INCLINATION": "2.6332",
        "RA_OF_ASC_NODE": "70.4532",
        "ARG_OF_PERICENTER": "203.7328",
        "MEAN_ANOMALY": "51.7933",
        "EPHEMERIS_TYPE": "0",
        "CLASSIFICATION_TYPE": "U",
        "NORAD_CAT_ID": "37210",
        "ELEMENT_SET_NO": "999",
        "REV_AT_EPOCH": "5318",
        "BSTAR": "0.00000000000000",
        "MEAN_MOTION_DOT": "-0.00000122",
        "MEAN_MOTION_DDOT": "0.0000000000000",
        "SEMIMAJOR_AXIS": "42164.411",
        "PERIOD": "1436.081",
        "APOAPSIS": "35808.307",
        "PERIAPSIS": "35764.245",
        "OBJECT_TYPE": "PAYLOAD",
        "RCS_SIZE": "LARGE",
        "COUNTRY_CODE": "PRC",
        "LAUNCH_DATE": "2010-10-31",
        "SITE": "XSC",
        "DECAY_DATE": null,
        "FILE": "4718307",
        "GP_ID": "286795772",
        "TLE_LINE0": "0 BEIDOU 6",
        "TLE_LINE1": "1 37210U 10057A   25123.84461103 -.00000122  00000-0  00000-0 0  9992",
        "TLE_LINE2": "2 37210   2.6332  70.4532 0005225 203.7328  51.7933  1.00272930 53180"
    }
]